[{"OBJECT_NAME":"STARLINK-2475","OBJECT_ID":"2021-027AT","EPOCH":"2026-03-09T13:07:51.631968","MEAN_MOTION":15.30212263,"ECCENTRICITY":0.00011489,"INCLINATION":53.1606,"RA_OF_ASC_NODE":165.9904,"ARG_OF_PERICENTER":102.8051,"MEAN_ANOMALY":257.3078,"EPHEMERIS_TYPE":0,"CLASSIFICATION_TYPE":"U","NORAD_CAT_ID":48133,"ELEMENT_SET_NO":999,"REV_AT_EPOCH":27249,"BSTAR":0.0004945958,"MEAN_MOTION_DOT":0.00014323,"MEAN_MOTION_DDOT":0},{"OBJECT_NAME":"TEVEL2-6","OBJECT_ID":"2025-052F","EPOCH":"2026-03-09T15:35:24.554400","MEAN_MOTION":15.30760889,"ECCENTRICITY":0.0004769,"INCLINATION":97.4016,"RA_OF_ASC_NODE":325.0381,"ARG_OF_PERICENTER":95.6604,"MEAN_ANOMALY":264.5181,"EPHEMERIS_TYPE":0,"CLASSIFICATION_TYPE":"U","NORAD_CAT_ID":63215,"ELEMENT_SET_NO":999,"REV_AT_EPOCH":5486,"BSTAR":0.00070909,"MEAN_MOTION_DOT":0.00021046,"MEAN_MOTION_DDOT":0}]
